#aV2007  2 24  0  0   .00000000      96 DD+AD WGS84 FIT  NGA
## 1415 518400.00000000   900.00000000 54155  .0000000000000
+   30     1  2  3  4  5  6  7  8  9 10 11 12 13 14 16 17 18
+         19 20 21 22 23 24 25 26 27 28 29 30 31  0  0  0  0
+          0  0  0  0  0  0  0  0  0  0  0  0  0  0  0  0  0
+          0  0  0  0  0  0  0  0  0  0  0  0  0  0  0  0  0
+          0  0  0  0  0  0  0  0  0  0  0  0  0  0  0  0  0
++         0  0  0  0  0  0  0  0  0  0  0  0  0  0  0  0  0
++         0  0  0  0  0  0  0  0  0  0  0  0  0  0  0  0  0
++         0  0  0  0  0  0  0  0  0  0  0  0  0  0  0  0  0
++         0  0  0  0  0  0  0  0  0  0  0  0  0  0  0  0  0
++         0  0  0  0  0  0  0  0  0  0  0  0  0  0  0  0  0
%c cc cc ccc ccc cccc cccc cccc cccc ccccc ccccc ccccc ccccc
%c cc cc ccc ccc cccc cccc cccc cccc ccccc ccccc ccccc ccccc
%f  0.0000000  0.000000000  0.00000000000  0.000000000000000
%f  0.0000000  0.000000000  0.00000000000  0.000000000000000
%i    0    0    0    0      0      0      0      0         0
%i    0    0    0    0      0      0      0      0         0
/*      NGA, ST. LOUIS,MO.                                  
/*   EPHEMERIS COMPUTED FROM  3 DAYS OF DATA                
/* CCCCCCCCCCCCCCCCCCCCCCCCCCCCCCCCCCCCCCCCCCCCCCCCCCCCCCCCC
/* CCCCCCCCCCCCCCCCCCCCCCCCCCCCCCCCCCCCCCCCCCCCCCCCCCCCCCCCC
*  2007  2 24  8 15   .00000000                                                 
P  1  13488.578318 -14208.391554 -17698.322450    109.779520                    
V  1  -1622.270081  22821.612031 -19387.732437       .023448                    
P  2 -22268.226447  13673.798057   3664.319947     85.090870                    
V  2  -5990.709037   -951.072598 -31150.622659       .033200                    
P  3  11502.422996 -17692.599986  15728.268500     18.612716                    
V  3   3247.587197  20522.952237  20775.349181       .058693                    
P  4 -24851.674548   4297.519532  -8963.008198      5.382390                    
V  4   9064.990688  -7106.998531 -28392.138991       .017529                    
P  5   7119.479989  18853.328733 -17608.192927     39.609108                    
V  5 -19974.102702  -9210.293314 -18025.049195       .041691                    
P  6   7423.204536  22908.369489  11332.790937     49.344378                    
V  6  -3708.270210  14043.171478 -26445.551245       .249209                    
P  7  10244.688326  20069.143770  14338.469796    405.323583                    
V  7  -2955.376065  17687.621796 -23278.043080      -.127593                    
P  8 -20559.392983  -3473.334104  16587.347178    -97.816625                    
V  8  18908.483898  -9401.725008  20894.227375      -.013915                    
P  9  -7684.892877  18260.654815 -18160.136715     58.946732                    
V  9 -20167.578346   8869.281853  18267.524365       .017150                    
P 10 -13294.618316   8411.950380  21337.846891     97.914350                    
V 10 -21849.642636 -16315.053936  -6828.722580       .005069                    
P 11   4004.940447 -19720.519564 -17307.310285      8.232822                    
V 11  19789.897571 -10331.155272  16741.280895       .011989                    
P 12   4662.671716  18625.580304 -18262.753483    -48.326965                    
V 12 -20171.040062 -11946.417379 -17186.667442       .027592                    
P 13  -7095.437802 -21096.638180  14436.497775    146.844903                    
V 13   3365.851930 -18152.853073 -24667.538270       .039932                    
P 14  14270.807122   3443.981606 -22054.519640      9.367926                    
V 14  -2834.213801  27980.798889   2461.430460       .014293                    
P 16  18167.120598  -3492.313411  19190.575991    125.252884                    
V 16  19009.353654  14926.512001 -15214.412480       .035779                    
P 17 -14812.468220  -4415.811034 -21606.942419     77.631349                    
V 17   2564.096940 -27313.288345   3705.202817      -.012711                    
P 18  19939.110740  17588.633936   2959.241911   -253.520536                    
V 18  -4474.202826     21.924573  31112.537180       .002626                    
P 19   8511.884272 -24097.217183   7138.123255      8.227076                    
V 19   1523.968250   9274.845063  29990.199575       .040935                    
P 20  -6495.058697 -19154.770918 -17334.766568    -22.523560                    
V 20  19114.914234  10681.843945 -19028.312539      -.001759                    
P 21  15215.008181   9262.184424  19956.975809     72.057530                    
V 21 -22548.336770  10950.215104  11607.917791       .009473                    
P 22  23052.840951  10208.760272  -8231.436967    169.078259                    
V 22   6739.736534   8760.109372  29168.728343       .018911                    
P 23   -901.858207 -26078.129761   4289.923901    151.436801                    
V 23   3069.618147  -5346.844583 -31467.100283       .017901                    
P 24  -1914.483457  16704.474980  20837.170569     80.025308                    
V 24 -24230.950728   9284.962642  -9464.130917       .033099                    
P 25  20025.855287 -16748.798447   5801.736673    330.909585                    
V 25   7197.246616  -1267.754962 -30439.853647      -.185981                    
P 26  -8251.932717  23248.128780   8604.268002    -58.622836                    
V 26   -913.802005 -11830.208167  30213.239666      -.187213                    
P 27 -13064.246637  -9939.016493  21571.590620     95.890602                    
V 27  22382.443613 -12943.556295   7571.135194       .020989                    
P 28 -22955.220433 -12995.806109  -4120.192743      6.679845                    
V 28  -3072.641545  -5280.634166  30974.504976      -.007352                    
P 29 -10356.477205  20438.252093  13337.425809    356.567542                    
V 29   -462.259171 -16746.384401  26071.379978       .081954                    
P 30  15351.538604  19008.874267 -10853.045045     26.292388                    
V 30 -12688.792522  -4871.279220 -27132.685390       .010853                    
P 31  24772.418872  -6707.827335  -6755.728887     11.024572                    
V 31  -6793.971893   6240.049765 -30148.401041       .033420                    
EOF
